OBJECT_NAME,OBJECT_ID,EPOCH,MEAN_MOTION,ECCENTRICITY,INCLINATION,RA_OF_ASC_NODE,ARG_OF_PERICENTER,MEAN_ANOMALY,EPHEMERIS_TYPE,CLASSIFICATION_TYPE,NORAD_CAT_ID,ELEMENT_SET_NO,REV_AT_EPOCH,BSTAR,MEAN_MOTION_DOT,MEAN_MOTION_DDOT
STARLINK-37589,2026-154W,2026-07-20T14:48:09.200160,15.80919727,.000188,53.1572,265.6038,56.8016,303.3187,0,U,69839,999,367,.83883E-3,.168495E-2,0
STARLINK-37487,2026-154X,2026-07-20T20:00:01.999008,15.80922412,.0001083,53.1585,264.0374,84.1733,300.9431,0,U,69840,999,355,-.58357E-3,-.114622E-2,0
STARLINK-37433,2026-154Y,2026-07-20T20:00:01.999008,15.80910626,.0001075,53.1589,264.0387,86.8469,297.6345,0,U,69841,999,368,-.44901E-3,-.88569E-3,0
STARLINK-37588,2026-154Z,2026-07-20T20:00:01.999008,15.80916479,.000121,53.1584,264.0022,82.8408,318.8233,0,U,69842,999,358,-.51446E-3,-.101259E-2,0
STARLINK-37579,2026-154AA,2026-07-20T20:00:01.999008,15.80918032,.0001041,53.1587,264.0057,90.9732,309.1025,0,U,69843,999,358,-.48088E-3,-.9477E-3,0
STARLINK-37584,2026-154AB,2026-07-20T20:00:01.999008,15.80916708,.0001277,53.1587,263.9980,67.6543,336.2484,0,U,69844,999,358,-.57756E-3,-.113437E-2,0
STARLINK-37606,2026-154AC,2026-07-20T20:00:01.999008,15.80919953,.0000957,53.1587,263.9862,89.8902,319.1748,0,U,69845,999,358,-.6448E-3,-.126389E-2,0
STARLINK-37603,2026-154AD,2026-07-20T20:00:01.999008,15.80922858,.0001033,53.1588,263.9793,88.2848,324.1195,0,U,69846,999,358,-.59856E-3,-.117511E-2,0
STARLINK-37595,2026-154AE,2026-07-20T20:00:01.999008,15.80929494,.000111,53.1589,263.9678,85.1840,332.4149,0,U,69847,999,358,-.55739E-3,-.109609E-2,0
QIANFAN-219,2026-155A,2026-07-20T14:59:54.419424,14.21193915,.0030878,89.0058,60.3281,205.1508,154.8180,0,U,69848,999,215,-.96168E+0,-.1948385E-1,0
QIANFAN-220,2026-155B,2026-07-20T20:55:12.415008,14.17598036,.0029929,89.0062,60.3090,203.1299,156.8544,0,U,69849,999,218,.1545E-4,.46E-6,0
QIANFAN-221,2026-155C,2026-07-20T20:01:44.521248,14.26648868,.0030918,89.0062,60.3035,204.2693,155.7046,0,U,69850,999,218,.96427E-4,.249E-5,0
QIANFAN-222,2026-155D,2026-07-20T20:44:10.456224,14.18562572,.0029127,89.0063,60.3081,204.3481,155.6335,0,U,69851,999,218,.1594E-4,.47E-6,0
QIANFAN-223,2026-155E,2026-07-20T18:53:10.263840,14.15279606,.0031008,89.0057,60.3152,211.0652,148.8703,0,U,69852,999,217,-.10978E+1,-.198843E-1,0
QIANFAN-224,2026-155F,2026-07-20T20:31:19.894368,14.20219564,.0030001,89.0051,60.3053,204.2586,155.7194,0,U,69853,999,218,.17587E-4,.52E-6,0
QIANFAN-225,2026-155G,2026-07-20T18:44:38.112288,14.15840867,.0033982,89.0054,60.3140,208.1308,151.8045,0,U,69854,999,217,-.10633E+1,-.195067E-1,0
QIANFAN-226,2026-155H,2026-07-20T18:42:22.981824,14.16307289,.0035927,89.0056,60.3143,207.3821,152.5475,0,U,69855,999,217,-.107E+1,-.1979183E-1,0
QIANFAN-227,2026-155J,2026-07-20T13:31:06.122784,14.17185293,.0037013,89.0058,60.3377,205.0412,154.8983,0,U,69856,999,214,-.11109E+1,-.2081505E-1,0
QIANFAN-228,2026-155K,2026-07-20T18:32:16.926432,14.17389383,.0037109,89.0063,60.3126,207.2250,152.6994,0,U,69857,999,217,-.10634E+1,-.2005955E-1,0
QIANFAN-229,2026-155L,2026-07-20T13:20:12.223392,14.19919120,.0032109,89.0058,60.3373,203.8299,156.1407,0,U,69858,999,214,-.10575E+1,-.2081727E-1,0
QIANFAN-230,2026-155M,2026-07-20T20:50:27.162816,14.17863734,.0029139,89.0058,60.3079,204.0624,155.9205,0,U,69859,999,218,.55055E-4,.127E-5,0
QIANFAN-231,2026-155N,2026-07-20T09:59:44.092320,14.21141856,.0030164,89.0059,60.3526,205.4049,154.5661,0,U,69860,999,212,-.91185E+0,-.1852077E-1,0
QIANFAN-232,2026-155P,2026-07-18T22:32:08.653920,14.22492911,.0029251,89.0055,60.5197,204.9431,155.0349,0,U,69861,999,191,-.9287293E+0,-.1928897E-1,0
QIANFAN-233,2026-155Q,2026-07-20T13:16:02.940384,14.21045295,.0030613,89.0058,60.3358,206.3000,153.6638,0,U,69862,999,214,-.96209E+0,-.194393E-1,0
QIANFAN-234,2026-155R,2026-07-20T13:14:10.565088,14.22587452,.0027916,89.0058,60.3356,207.1698,152.8035,0,U,69863,999,214,-.89623E+0,-.1868372E-1,0
QIANFAN-235,2026-155S,2026-07-20T20:00:08.948160,14.26765967,.0030803,89.0063,60.3035,204.3875,155.5863,0,U,69864,999,218,.7614E-4,.2E-5,0
QIANFAN-236,2026-155T,2026-07-20T16:38:53.907072,14.21502283,.0027732,89.0076,60.3219,204.7805,155.2056,0,U,69865,999,216,-.10051E+1,-.2039113E-1,0
QIANFAN-237,2026-155U,2026-07-20T14:53:14.286336,14.24461657,.0029399,89.0062,60.3272,197.1524,162.8678,0,U,69866,999,214,-.81697E+0,-.1752424E-1,0
QIANFAN-238,2026-155V,2026-07-20T19:59:49.687872,14.26786802,.0030741,89.0064,60.3032,204.4626,155.5111,0,U,69867,999,218,.1746E-4,.57E-6,0
CZ-8A R/B,2026-155W,2026-07-20T19:33:29.743776,14.48272364,.0106579,88.9655,60.2088,84.4806,276.8545,0,U,69868,999,220,.58484E-4,.254E-5,0
