STARLINK-37589          
1 69839U 26154W   26201.61677315  .00168495  00000+0  83883-3 0  9995
2 69839  53.1572 265.6038 0001880  56.8016 303.3187 15.80919727  3673
STARLINK-37487          
1 69840U 26154X   26201.83335647 -.00114622  00000+0 -58357-3 0  9993
2 69840  53.1585 264.0374 0001083  84.1733 300.9431 15.80922412  3557
STARLINK-37433          
1 69841U 26154Y   26201.83335647 -.00088569  00000+0 -44901-3 0  9994
2 69841  53.1589 264.0387 0001075  86.8469 297.6345 15.80910626  3686
STARLINK-37588          
1 69842U 26154Z   26201.83335647 -.00101259  00000+0 -51446-3 0  9999
2 69842  53.1584 264.0022 0001210  82.8408 318.8233 15.80916479  3581
STARLINK-37579          
1 69843U 26154AA  26201.83335647 -.00094770  00000+0 -48088-3 0  9997
2 69843  53.1587 264.0057 0001041  90.9732 309.1025 15.80918032  3584
STARLINK-37584          
1 69844U 26154AB  26201.83335647 -.00113437  00000+0 -57756-3 0  9992
2 69844  53.1587 263.9980 0001277  67.6543 336.2484 15.80916708  3588
STARLINK-37606          
1 69845U 26154AC  26201.83335647 -.00126389  00000+0 -64480-3 0  9995
2 69845  53.1587 263.9862 0000957  89.8902 319.1748 15.80919953  3585
STARLINK-37603          
1 69846U 26154AD  26201.83335647 -.00117511  00000+0 -59856-3 0  9994
2 69846  53.1588 263.9793 0001033  88.2848 324.1195 15.80922858  3588
STARLINK-37595          
1 69847U 26154AE  26201.83335647 -.00109609  00000+0 -55739-3 0  9990
2 69847  53.1589 263.9678 0001110  85.1840 332.4149 15.80929494  3580
QIANFAN-219             
1 69848U 26155A   26201.62493541 -.01948385  00000+0 -96168+0 0  9997
2 69848  89.0058  60.3281 0030878 205.1508 154.8180 14.21193915  2155
QIANFAN-220             
1 69849U 26155B   26201.87167147  .00000046  00000+0  15450-4 0  9995
2 69849  89.0062  60.3090 0029929 203.1299 156.8544 14.17598036  2186
QIANFAN-221             
1 69850U 26155C   26201.83454307  .00000249  00000+0  96427-4 0  9998
2 69850  89.0062  60.3035 0030918 204.2693 155.7046 14.26648868  2181
QIANFAN-222             
1 69851U 26155D   26201.86400991  .00000047  00000+0  15940-4 0  9999
2 69851  89.0063  60.3081 0029127 204.3481 155.6335 14.18562572  2188
QIANFAN-223             
1 69852U 26155E   26201.78692435 -.01988430  00000+0 -10978+1 0  9993
2 69852  89.0057  60.3152 0031008 211.0652 148.8703 14.15279606  2179
QIANFAN-224             
1 69853U 26155F   26201.85509137  .00000052  00000+0  17587-4 0  9997
2 69853  89.0051  60.3053 0030001 204.2586 155.7194 14.20219564  2181
QIANFAN-225             
1 69854U 26155G   26201.78099667 -.01950670  00000+0 -10633+1 0  9996
2 69854  89.0054  60.3140 0033982 208.1308 151.8045 14.15840867  2179
QIANFAN-226             
1 69855U 26155H   26201.77943266 -.01979183  00000+0 -10700+1 0  9994
2 69855  89.0056  60.3143 0035927 207.3821 152.5475 14.16307289  2179
QIANFAN-227             
1 69856U 26155J   26201.56326531 -.02081505  00000+0 -11109+1 0  9999
2 69856  89.0058  60.3377 0037013 205.0412 154.8983 14.17185293  2146
QIANFAN-228             
1 69857U 26155K   26201.77241813 -.02005955  00000+0 -10634+1 0  9999
2 69857  89.0063  60.3126 0037109 207.2250 152.6994 14.17389383  2172
QIANFAN-229             
1 69858U 26155L   26201.55569703 -.02081727  00000+0 -10575+1 0  9992
2 69858  89.0058  60.3373 0032109 203.8299 156.1407 14.19919120  2146
QIANFAN-230             
1 69859U 26155M   26201.86836994  .00000127  00000+0  55055-4 0  9993
2 69859  89.0058  60.3079 0029139 204.0624 155.9205 14.17863734  2188
QIANFAN-231             
1 69860U 26155N   26201.41648255 -.01852077  00000+0 -91185+0 0  9998
2 69860  89.0059  60.3526 0030164 205.4049 154.5661 14.21141856  2128
QIANFAN-232             
1 69861U 26155P   26199.93898905 -.01928897  00000+0 -92873+0 0  9990
2 69861  89.0055  60.5197 0029251 204.9431 155.0349 14.22492911  1912
QIANFAN-233             
1 69862U 26155Q   26201.55281181 -.01943930  00000+0 -96209+0 0  9997
2 69862  89.0058  60.3358 0030613 206.3000 153.6638 14.21045295  2144
QIANFAN-234             
1 69863U 26155R   26201.55151117 -.01868372  00000+0 -89623+0 0  9991
2 69863  89.0058  60.3356 0027916 207.1698 152.8035 14.22587452  2146
QIANFAN-235             
1 69864U 26155S   26201.83343690  .00000200  00000+0  76140-4 0  9992
2 69864  89.0063  60.3035 0030803 204.3875 155.5863 14.26765967  2188
QIANFAN-236             
1 69865U 26155T   26201.69367948 -.02039113  00000+0 -10051+1 0  9993
2 69865  89.0076  60.3219 0027732 204.7805 155.2056 14.21502283  2165
QIANFAN-237             
1 69866U 26155U   26201.62030424 -.01752424  00000+0 -81697+0 0  9992
2 69866  89.0062  60.3272 0029399 197.1524 162.8678 14.24461657  2148
QIANFAN-238             
1 69867U 26155V   26201.83321398  .00000057  00000+0  17460-4 0  9996
2 69867  89.0064  60.3032 0030741 204.4626 155.5111 14.26786802  2182
CZ-8A R/B               
1 69868U 26155W   26201.81492759  .00000254  00000+0  58484-4 0  9995
2 69868  88.9655  60.2088 0106579  84.4806 276.8545 14.48272364  2204
